start=new Date('2022-02-10T00:00:00.000Z').valueOf();
sats=[{"OBJECT_NAME":"STARLINK-2390","CLASSIFICATION_TYPE":"U","ECCENTRICITY":"0.00014070","GP_ID":"195641055","ELEMENT_SET_NO":"999","RCS_SIZE":"LARGE","TIME_SYSTEM":"UTC","SITE":"AFETR","TLE_LINE1":"1 47809U 21018Y   22040.55183295  .00001566  00000-0  12402-3 0  9996","MEAN_ANOMALY":"296.2771","COUNTRY_CODE":"US","ARG_OF_PERICENTER":"63.8363","CENTER_NAME":"EARTH","BSTAR":"0.00012402000000","OBJECT_TYPE":"PAYLOAD","MEAN_MOTION":"15.06389915","APOAPSIS":"548.219","SEMIMAJOR_AXIS":"6925.379","NORAD_CAT_ID":"47809","RA_OF_ASC_NODE":"96.6113","LAUNCH_DATE":"2021-03-11","FILE":"3295989","PERIAPSIS":"546.270","MEAN_MOTION_DOT":"0.00001566","EPHEMERIS_TYPE":"0","PERIOD":"95.593","MEAN_ELEMENT_THEORY":"SGP4","MEAN_MOTION_DDOT":"0.0000000000000","TLE_LINE2":"2 47809  53.0544  96.6113 0001407  63.8363 296.2771 15.06389915 52208","OBJECT_ID":"2021-018Y","REF_FRAME":"TEME","REV_AT_EPOCH":"5220","INCLINATION":"53.0544","EPOCH":"2022-02-09T13:14:38.366880","DECAY_DATE":null},{"NORAD_CAT_ID":"47810","SEMIMAJOR_AXIS":"6925.366","RA_OF_ASC_NODE":"107.1116","APOAPSIS":"548.296","MEAN_MOTION":"15.06394410","MEAN_MOTION_DDOT":"0.0000000000000","TLE_LINE2":"2 47810  53.0547 107.1116 0001538  74.5020 285.6139 15.06394410 52046","EPHEMERIS_TYPE":"0","MEAN_ELEMENT_THEORY":"SGP4","PERIOD":"95.592","PERIAPSIS":"546.166","MEAN_MOTION_DOT":"0.00002109","LAUNCH_DATE":"2021-03-11","FILE":"3295989","EPOCH":"2022-02-09T10:39:23.779008","REV_AT_EPOCH":"5204","INCLINATION":"53.0547","OBJECT_ID":"2021-018Z","REF_FRAME":"TEME","DECAY_DATE":null,"ECCENTRICITY":"0.00015380","CLASSIFICATION_TYPE":"U","OBJECT_NAME":"STARLINK-2391","GP_ID":"195639303","SITE":"AFETR","TLE_LINE1":"1 47810U 21018Z   22040.44402522  .00002109  00000-0  16044-3 0  9993","MEAN_ANOMALY":"285.6139","RCS_SIZE":"LARGE","TIME_SYSTEM":"UTC","ELEMENT_SET_NO":"999","BSTAR":"0.00016044000000","OBJECT_TYPE":"PAYLOAD","CENTER_NAME":"EARTH","ARG_OF_PERICENTER":"74.5020","COUNTRY_CODE":"US"},{"ARG_OF_PERICENTER":"64.6175","COUNTRY_CODE":"US","BSTAR":"0.00027786000000","OBJECT_TYPE":"PAYLOAD","CENTER_NAME":"EARTH","ELEMENT_SET_NO":"999","SITE":"AFETR","TLE_LINE1":"1 47811U 21018AA  22040.48366467  .00003859  00000-0  27786-3 0  9993","MEAN_ANOMALY":"295.4970","RCS_SIZE":"LARGE","TIME_SYSTEM":"UTC","GP_ID":"195639553","ECCENTRICITY":"0.00015090","OBJECT_NAME":"STARLINK-2392","CLASSIFICATION_TYPE":"U","DECAY_DATE":null,"OBJECT_ID":"2021-018AA","REF_FRAME":"TEME","EPOCH":"2022-02-09T11:36:28.627488","REV_AT_EPOCH":"5247","INCLINATION":"53.0562","PERIAPSIS":"546.192","MEAN_MOTION_DOT":"0.00003859","LAUNCH_DATE":"2021-03-11","FILE":"3295989","MEAN_MOTION_DDOT":"0.0000000000000","TLE_LINE2":"2 47811  53.0562  76.9294 0001509  64.6175 295.4970 15.06392416 52476","EPHEMERIS_TYPE":"0","PERIOD":"95.593","MEAN_ELEMENT_THEORY":"SGP4","MEAN_MOTION":"15.06392416","APOAPSIS":"548.282","NORAD_CAT_ID":"47811","SEMIMAJOR_AXIS":"6925.372","RA_OF_ASC_NODE":"76.9294"},{"GP_ID":"195640805","CLASSIFICATION_TYPE":"U","OBJECT_NAME":"STARLINK-2393","ECCENTRICITY":"0.00013600","COUNTRY_CODE":"US","ARG_OF_PERICENTER":"70.2373","CENTER_NAME":"EARTH","BSTAR":"0.00080764000000","OBJECT_TYPE":"PAYLOAD","ELEMENT_SET_NO":"999","RCS_SIZE":"LARGE","TIME_SYSTEM":"UTC","TLE_LINE1":"1 47812U 21018AB  22040.58779372  .00011775  00000-0  80764-3 0  9999","SITE":"AFETR","MEAN_ANOMALY":"289.8762","LAUNCH_DATE":"2021-03-11","FILE":"3295989","PERIAPSIS":"546.215","MEAN_MOTION_DOT":"0.00011775","EPHEMERIS_TYPE":"0","MEAN_ELEMENT_THEORY":"SGP4","PERIOD":"95.591","MEAN_MOTION_DDOT":"0.0000000000000","TLE_LINE2":"2 47812  53.0550 106.4545 0001360  70.2373 289.8762 15.06418519 52008","MEAN_MOTION":"15.06418519","APOAPSIS":"548.099","NORAD_CAT_ID":"47812","SEMIMAJOR_AXIS":"6925.292","RA_OF_ASC_NODE":"106.4545","DECAY_DATE":null,"OBJECT_ID":"2021-018AB","REF_FRAME":"TEME","REV_AT_EPOCH":"5200","INCLINATION":"53.0550","EPOCH":"2022-02-09T14:06:25.377408"},{"MEAN_MOTION":"15.06407149","APOAPSIS":"548.307","SEMIMAJOR_AXIS":"6925.327","NORAD_CAT_ID":"47813","RA_OF_ASC_NODE":"76.5298","FILE":"3296262","LAUNCH_DATE":"2021-03-11","MEAN_MOTION_DOT":"0.00004517","PERIAPSIS":"546.076","MEAN_ELEMENT_THEORY":"SGP4","PERIOD":"95.592","EPHEMERIS_TYPE":"0","TLE_LINE2":"2 47813  53.0539  76.5298 0001611  60.6011 299.5139 15.06407149 52080","MEAN_MOTION_DDOT":"0.0000000000000","REF_FRAME":"TEME","OBJECT_ID":"2021-018AC","INCLINATION":"53.0539","REV_AT_EPOCH":"5208","EPOCH":"2022-02-09T13:43:51.213792","DECAY_DATE":null,"OBJECT_NAME":"STARLINK-2394","CLASSIFICATION_TYPE":"U","ECCENTRICITY":"0.00016110","GP_ID":"195648722","ELEMENT_SET_NO":"999","TIME_SYSTEM":"UTC","RCS_SIZE":"LARGE","MEAN_ANOMALY":"299.5139","SITE":"AFETR","TLE_LINE1":"1 47813U 21018AC  22040.57212053  .00004517  00000-0  32187-3 0  9999","COUNTRY_CODE":"US","ARG_OF_PERICENTER":"60.6011","CENTER_NAME":"EARTH","OBJECT_TYPE":"PAYLOAD","BSTAR":"0.00032187000000"},{"REV_AT_EPOCH":"5183","INCLINATION":"53.0537","EPOCH":"2022-02-09T15:53:53.326464","REF_FRAME":"TEME","OBJECT_ID":"2021-018AD","DECAY_DATE":null,"SEMIMAJOR_AXIS":"6925.337","NORAD_CAT_ID":"47814","RA_OF_ASC_NODE":"96.1276","APOAPSIS":"548.465","MEAN_MOTION":"15.06403845","EPHEMERIS_TYPE":"0","MEAN_ELEMENT_THEORY":"SGP4","PERIOD":"95.592","MEAN_MOTION_DDOT":"0.0000000000000","TLE_LINE2":"2 47814  53.0537  96.1276 0001824  54.9236 305.1924 15.06403845 51831","LAUNCH_DATE":"2021-03-11","FILE":"3296221","PERIAPSIS":"545.939","MEAN_MOTION_DOT":"0.00002314","RCS_SIZE":"LARGE","TIME_SYSTEM":"UTC","TLE_LINE1":"1 47814U 21018AD  22040.66242276  .00002314  00000-0  17418-3 0  9993","SITE":"AFETR","MEAN_ANOMALY":"305.1924","ELEMENT_SET_NO":"999","CENTER_NAME":"EARTH","BSTAR":"0.00017418000000","OBJECT_TYPE":"PAYLOAD","COUNTRY_CODE":"US","ARG_OF_PERICENTER":"54.9236","OBJECT_NAME":"STARLINK-2395","CLASSIFICATION_TYPE":"U","ECCENTRICITY":"0.00018240","GP_ID":"195647717"},{"DECAY_DATE":null,"REV_AT_EPOCH":"5221","INCLINATION":"53.0544","EPOCH":"2022-02-09T13:28:34.688640","REF_FRAME":"TEME","OBJECT_ID":"2021-018AE","EPHEMERIS_TYPE":"0","PERIOD":"95.593","MEAN_ELEMENT_THEORY":"SGP4","MEAN_MOTION_DDOT":"0.0000000000000","TLE_LINE2":"2 47815  53.0544  91.5783 0001826  56.5245 303.5919 15.06386923 52218","LAUNCH_DATE":"2021-03-11","FILE":"3295989","PERIAPSIS":"545.989","MEAN_MOTION_DOT":"-0.00000105","SEMIMAJOR_AXIS":"6925.389","NORAD_CAT_ID":"47815","RA_OF_ASC_NODE":"91.5783","APOAPSIS":"548.518","MEAN_MOTION":"15.06386923","CENTER_NAME":"EARTH","BSTAR":"0.00001185200000","OBJECT_TYPE":"PAYLOAD","COUNTRY_CODE":"US","ARG_OF_PERICENTER":"56.5245","RCS_SIZE":"LARGE","TIME_SYSTEM":"UTC","SITE":"AFETR","TLE_LINE1":"1 47815U 21018AE  22040.56151260 -.00000105  00000-0  11852-4 0  9999","MEAN_ANOMALY":"303.5919","ELEMENT_SET_NO":"999","GP_ID":"195640054","OBJECT_NAME":"STARLINK-2396","CLASSIFICATION_TYPE":"U","ECCENTRICITY":"0.00018260"},{"APOAPSIS":"548.247","MEAN_MOTION":"15.06416922","NORAD_CAT_ID":"47816","SEMIMAJOR_AXIS":"6925.297","RA_OF_ASC_NODE":"97.1377","FILE":"3295989","LAUNCH_DATE":"2021-03-11","MEAN_MOTION_DOT":"0.00011578","PERIAPSIS":"546.077","MEAN_ELEMENT_THEORY":"SGP4","PERIOD":"95.591","EPHEMERIS_TYPE":"0","TLE_LINE2":"2 47816  53.0549  97.1377 0001567  65.0099 295.1053 15.06416922 52127","MEAN_MOTION_DDOT":"0.0000000000000","OBJECT_ID":"2021-018AF","REF_FRAME":"TEME","INCLINATION":"53.0549","REV_AT_EPOCH":"5212","EPOCH":"2022-02-09T10:30:07.260192","DECAY_DATE":null,"OBJECT_NAME":"STARLINK-2399","CLASSIFICATION_TYPE":"U","ECCENTRICITY":"0.00015670","GP_ID":"195640305","ELEMENT_SET_NO":"999","TIME_SYSTEM":"UTC","RCS_SIZE":"LARGE","MEAN_ANOMALY":"295.1053","SITE":"AFETR","TLE_LINE1":"1 47816U 21018AF  22040.43758403  .00011578  00000-0  79453-3 0  9993","COUNTRY_CODE":"US","ARG_OF_PERICENTER":"65.0099","CENTER_NAME":"EARTH","OBJECT_TYPE":"PAYLOAD","BSTAR":"0.00079453000000"},{"CENTER_NAME":"EARTH","OBJECT_TYPE":"PAYLOAD","BSTAR":"0.00065849000000","COUNTRY_CODE":"US","ARG_OF_PERICENTER":"68.4984","TIME_SYSTEM":"UTC","RCS_SIZE":"LARGE","MEAN_ANOMALY":"291.6143","SITE":"AFETR","TLE_LINE1":"1 47817U 21018AG  22040.52236986  .00009544  00000-0  65849-3 0  9995","ELEMENT_SET_NO":"999","GP_ID":"195641056","OBJECT_NAME":"STARLINK-2400","CLASSIFICATION_TYPE":"U","ECCENTRICITY":"0.00012950","DECAY_DATE":null,"INCLINATION":"53.0558","REV_AT_EPOCH":"5213","EPOCH":"2022-02-09T12:32:12.755904","OBJECT_ID":"2021-018AG","REF_FRAME":"TEME","MEAN_ELEMENT_THEORY":"SGP4","PERIOD":"95.591","EPHEMERIS_TYPE":"0","TLE_LINE2":"2 47817  53.0558  96.7438 0001295  68.4984 291.6143 15.06414044 52134","MEAN_MOTION_DDOT":"0.0000000000000","FILE":"3295989","LAUNCH_DATE":"2021-03-11","MEAN_MOTION_DOT":"0.00009544","PERIAPSIS":"546.274","SEMIMAJOR_AXIS":"6925.306","NORAD_CAT_ID":"47817","RA_OF_ASC_NODE":"96.7438","APOAPSIS":"548.067","MEAN_MOTION":"15.06414044"},{"ELEMENT_SET_NO":"999","MEAN_ANOMALY":"284.6844","SITE":"AFETR","TLE_LINE1":"1 47818U 21018AH  22040.54954029  .00003957  00000-0  28442-3 0  9993","TIME_SYSTEM":"UTC","RCS_SIZE":"LARGE","ARG_OF_PERICENTER":"75.4305","COUNTRY_CODE":"US","OBJECT_TYPE":"PAYLOAD","BSTAR":"0.00028442000000","CENTER_NAME":"EARTH","ECCENTRICITY":"0.00014430","CLASSIFICATION_TYPE":"U","OBJECT_NAME":"STARLINK-2401","GP_ID":"195639304","OBJECT_ID":"2021-018AH","REF_FRAME":"TEME","EPOCH":"2022-02-09T13:11:20.281056","INCLINATION":"53.0557","REV_AT_EPOCH":"5207","DECAY_DATE":null,"APOAPSIS":"548.229","MEAN_MOTION":"15.06394865","SEMIMAJOR_AXIS":"6925.364","NORAD_CAT_ID":"47818","RA_OF_ASC_NODE":"101.6351","MEAN_MOTION_DOT":"0.00003957","PERIAPSIS":"546.230","FILE":"3295989","LAUNCH_DATE":"2021-03-11","TLE_LINE2":"2 47818  53.0557 101.6351 0001443  75.4305 284.6844 15.06394865 52075","MEAN_MOTION_DDOT":"0.0000000000000","MEAN_ELEMENT_THEORY":"SGP4","PERIOD":"95.592","EPHEMERIS_TYPE":"0"}];
